NORAD_CAT_ID,OBJECT_NAME,OBJECT_TYPE,EPOCH,MEAN_MOTION,ECCENTRICITY,INCLINATION,RA_OF_ASC_NODE,ARG_OF_PERICENTER,MEAN_ANOMALY,BSTAR,MEAN_MOTION_DOT,MEAN_MOTION_DDOT,TLE_LINE0,TLE_LINE1,TLE_LINE2,SEMIMAJOR_AXIS,PERIOD,APOGEE,PERIGEE,DECAYED
53602.0,STARLINK-4648,PAYLOAD,2024-06-22 08:49:48,15.08841265,0.0001353,53.2168,166.2416,89.5866,270.5282,6.038e-05,6.73e-06,0.0,0 STARLINK-4648,1 53602U 22104Q   24174.36792611  .00000673  00000-0  60380-4 0  9995,2 53602  53.2168 166.2416 0001353  89.5866 270.5282 15.08841265101281,6917.877,95.437,540.678,538.806,0.0
53602.0,STARLINK-4648,PAYLOAD,2024-06-23 08:40:35,15.08843989,0.0001385,53.2169,161.7793,88.0875,272.0275,4.5874e-05,4.42e-06,0.0,0 STARLINK-4648,1 53602U 22104Q   24175.36152342  .00000442  00000-0  45874-4 0  9992,2 53602  53.2169 161.7793 0001385  88.0875 272.0275 15.08843989100743,6917.868,95.437,540.691,538.775,0.0
53602.0,STARLINK-4648,PAYLOAD,2024-06-24 08:31:22,15.08844349,0.000137,53.2167,157.319,89.2638,270.8511,5.6198e-05,6.07e-06,0.0,0 STARLINK-4648,1 53602U 22104Q   24176.35511985  .00000607  00000-0  56198-4 0  9998,2 53602  53.2167 157.3190 0001370  89.2638 270.8511 15.08844349101580,6917.867,95.437,540.68,538.784,0.0
53602.0,STARLINK-4648,PAYLOAD,2024-06-25 05:11:23,15.08837887,0.0001363,53.2168,153.4524,98.5861,261.5286,-8.3453e-06,-4.21e-06,0.0,0 STARLINK-4648,1 53602U 22104Q   24177.21624450 -.00000421  00000-0 -83453-5 0  9997,2 53602  53.2168 153.4524 0001363  98.5861 261.5286 15.08837887101026,6917.887,95.438,540.695,538.809,0.0
53602.0,STARLINK-4648,PAYLOAD,2024-06-25 09:57:32,15.0883872,0.0001394,53.217,152.5604,102.7089,257.4059,-1.6648e-07,-2.91e-06,0.0,0 STARLINK-4648,1 53602U 22104Q   24177.41496370 -.00000291  00000-0 -16648-6 0  9995,2 53602  53.2170 152.5604 0001394 102.7089 257.4059 15.08838720101740,6917.884,95.438,540.714,538.785,0.0
53602.0,STARLINK-4648,PAYLOAD,2024-06-26 05:02:10,15.08839833,0.0001413,53.2169,148.9927,104.8566,255.2583,1.0946e-05,-1.14e-06,0.0,0 STARLINK-4648,1 53602U 22104Q   24178.20984299 -.00000114  00000-0  10946-4 0  9991,2 53602  53.2169 148.9927 0001413 104.8566 255.2583 15.08839833101867,6917.881,95.438,540.723,538.768,0.0
53602.0,STARLINK-4648,PAYLOAD,2024-06-27 03:17:35,15.08822834,0.0001374,53.2169,144.8315,100.2388,259.8759,-4.8154e-05,-1.054e-05,0.0,0 STARLINK-4648,1 53602U 22104Q   24179.13722168 -.00001054  00000-0 -48154-4 0  9996,2 53602  53.2169 144.8315 0001374 100.2388 259.8759 15.08822834101319,6917.933,95.439,540.748,538.847,0.0
53602.0,STARLINK-4648,PAYLOAD,2024-06-27 04:52:59,15.08819962,0.0001383,53.2169,144.5333,92.5154,267.5996,-7.1121e-05,-1.419e-05,0.0,0 STARLINK-4648,1 53602U 22104Q   24179.20346515 -.00001419  00000-0 -71121-4 0  9997,2 53602  53.2169 144.5333 0001383  92.5154 267.5996 15.08819962102015,6917.942,95.439,540.763,538.85,0.0
53602.0,STARLINK-4648,PAYLOAD,2024-06-28 04:43:46,15.08836538,0.0001263,53.216,140.0743,94.5112,265.6025,3.9848e-05,3.46e-06,0.0,0 STARLINK-4648,1 53602U 22104Q   24180.19706053  .00000346  00000-0  39848-4 0  9990,2 53602  53.2160 140.0743 0001263  94.5112 265.6025 15.08836538101474,6917.891,95.438,540.63,538.882,0.0
53602.0,STARLINK-4648,PAYLOAD,2024-06-28 14:16:04,15.08843652,0.0001251,53.2156,138.2878,89.2778,270.8357,0.00027408,4.077e-05,0.0,0 STARLINK-4648,1 53602U 22104Q   24180.59449097  .00004077  00000-0  27408-3 0  9999,2 53602  53.2156 138.2878 0001251  89.2778 270.8357 15.08843652102228,6917.869,95.437,540.6,538.869,0.0
53602.0,STARLINK-4648,PAYLOAD,2024-06-29 04:34:31,15.08856942,0.0001237,53.2155,135.6116,103.7873,256.3257,0.00039937,6.077e-05,0.0,0 STARLINK-4648,1 53602U 22104Q   24181.19063842  .00006077  00000-0  39937-3 0  9998,2 53602  53.2155 135.6116 0001237 103.7873 256.3257 15.08856942101622,6917.829,95.436,540.549,538.838,0.0
53602.0,STARLINK-4648,PAYLOAD,2024-06-29 14:06:49,15.08864701,0.0002382,53.2153,133.8249,72.2247,287.9005,0.00037002,5.61e-05,0.0,0 STARLINK-4648,1 53602U 22104Q   24181.58807628  .00005610  00000-0  37002-3 0  9992,2 53602  53.2153 133.8249 0002382  72.2247 287.9005 15.08864701102370,6917.805,95.436,541.318,538.022,0.0
53602.0,STARLINK-4648,PAYLOAD,2024-06-29 20:28:25,15.08825898,0.0001393,53.2146,132.6369,81.488,278.627,-0.00016641,-2.934e-05,0.0,0 STARLINK-4648,1 53602U 22104Q   24181.85307283 -.00002934  00000-0 -16641-3 0  9998,2 53602  53.2146 132.6369 0001393  81.4880 278.6270 15.08825898101721,6917.923,95.438,540.752,538.825,0.0
53602.0,STARLINK-4648,PAYLOAD,2024-06-30 04:25:19,15.08830647,0.000142,53.2144,131.1523,77.151,282.964,-0.00022998,-3.945e-05,0.0,0 STARLINK-4648,1 53602U 22104Q   24182.18425919 -.00003945  00000-0 -22998-3 0  9997,2 53602  53.2144 131.1523 0001420  77.1510 282.9640 15.08830647101770,6917.909,95.438,540.756,538.792,0.0
53602.0,STARLINK-4648,PAYLOAD,2024-06-30 13:57:38,15.08843373,0.0001496,53.2157,129.3688,80.7319,279.3843,-5.7529e-05,-1.204e-05,0.0,0 STARLINK-4648,1 53602U 22104Q   24182.58169363 -.00001204  00000-0 -57529-4 0  9994,2 53602  53.2157 129.3688 0001496  80.7319 279.3843 15.08843373102524,6917.87,95.437,540.77,538.7,0.0
53602.0,STARLINK-4648,PAYLOAD,2024-07-01 13:48:25,15.08856334,0.0001532,53.2162,124.9065,84.9895,275.1272,0.00059428,9.187e-05,0.0,0 STARLINK-4648,1 53602U 22104Q   24183.57528936  .00009187  00000-0  59428-3 0  9994,2 53602  53.2162 124.9065 0001532  84.9895 275.1272 15.08856334102673,6917.83,95.437,540.755,538.636,0.0
53602.0,STARLINK-4648,PAYLOAD,2024-07-01 20:09:57,15.08856475,0.0002636,53.2152,123.7187,85.1327,274.9966,0.00068912,0.00010701,0.0,0 STARLINK-4648,1 53602U 22104Q   24183.84025443  .00010701  00000-0  68912-3 0  9991,2 53602  53.2152 123.7187 0002636  85.1327 274.9966 15.08856475102025,6917.83,95.437,541.519,537.871,0.0
53602.0,STARLINK-4648,PAYLOAD,2024-07-02 02:31:30,15.08841818,0.0001509,53.216,122.5274,102.0289,258.0872,0.00022824,3.347e-05,0.0,0 STARLINK-4648,1 53602U 22104Q   24184.10521473  .00003347  00000-0  22824-3 0  9995,2 53602  53.2160 122.5274 0001509 102.0289 258.0872 15.08841818102060,6917.875,95.437,540.784,538.696,0.0
53602.0,STARLINK-4648,PAYLOAD,2024-07-02 05:42:16,15.08844655,0.0001543,53.216,121.9325,103.5777,256.5387,0.00021995,3.215e-05,0.0,0 STARLINK-4648,1 53602U 22104Q   24184.23769324  .00003215  00000-0  21995-3 0  9990,2 53602  53.2160 121.9325 0001543 103.5777 256.5387 15.08844655102770,6917.866,95.437,540.799,538.664,0.0
53602.0,STARLINK-4648,PAYLOAD,2024-07-02 20:00:45,15.0884195,0.0001576,53.216,119.2557,109.7253,250.3909,0.00022417,3.282e-05,0.0,0 STARLINK-4648,1 53602U 22104Q   24184.83385482  .00003282  00000-0  22417-3 0  9999,2 53602  53.2160 119.2557 0001576 109.7253 250.3909 15.08841950102867,6917.874,95.437,540.83,538.649,0.0
53602.0,STARLINK-4648,PAYLOAD,2024-07-03 02:22:17,15.08840012,0.0001357,53.2152,118.0663,85.0395,275.0752,0.0001331,1.831e-05,0.0,0 STARLINK-4648,1 53602U 22104Q   24185.09881710  .00001831  00000-0  13310-3 0  9993,2 53602  53.2152 118.0663 0001357  85.0395 275.0752 15.08840012102210,6917.88,95.438,540.684,538.807,0.0
53602.0,STARLINK-4648,PAYLOAD,2024-07-03 05:33:04,15.08840679,0.0001338,53.2154,117.472,82.9903,277.1241,6.5234e-05,7.5e-06,0.0,0 STARLINK-4648,1 53602U 22104Q   24185.23129679  .00000750  00000-0  65234-4 0  9990,2 53602  53.2154 117.4720 0001338  82.9903 277.1241 15.08840679102922,6917.878,95.438,540.669,538.818,0.0
53602.0,STARLINK-4648,PAYLOAD,2024-07-04 11:45:23,15.0885064,0.0001213,53.2169,111.8214,77.5526,282.5602,0.00033012,4.971e-05,0.0,0 STARLINK-4648,1 53602U 22104Q   24186.48985340  .00004971  00000-0  33012-3 0  9990,2 53602  53.2169 111.8214 0001213  77.5526 282.5602 15.08850640102422,6917.848,95.437,540.552,538.874,0.0
53602.0,STARLINK-4648,PAYLOAD,2024-07-04 19:42:19,15.0883852,0.000178,53.2167,110.3346,72.3374,287.7812,6.5697e-05,7.58e-06,0.0,0 STARLINK-4648,1 53602U 22104Q   24186.82105962  .00000758  00000-0  65697-4 0  9996,2 53602  53.2167 110.3346 0001780  72.3374 287.7812 15.08838520102471,6917.885,95.438,540.981,538.519,0.0
53602.0,STARLINK-4648,PAYLOAD,2024-07-04 22:53:05,15.08834162,0.0001286,53.2169,109.7403,75.0688,285.0447,-2.2573e-05,-6.47e-06,0.0,0 STARLINK-4648,1 53602U 22104Q   24186.95354055 -.00000647  00000-0 -22573-4 0  9994,2 53602  53.2169 109.7403 0001286  75.0688 285.0447 15.08834162103180,6917.898,95.438,540.653,538.874,0.0
53602.0,STARLINK-4648,PAYLOAD,2024-07-05 11:36:10,15.08858194,0.0001145,53.2166,107.361,61.4876,298.6232,0.00046228,7.081e-05,0.0,0 STARLINK-4648,1 53602U 22104Q   24187.48345130  .00007081  00000-0  46228-3 0  9996,2 53602  53.2166 107.3610 0001145  61.4876 298.6232 15.08858194102578,6917.825,95.436,540.482,538.898,0.0
53602.0,STARLINK-4648,PAYLOAD,2024-07-05 22:43:52,15.08832133,0.0001127,53.2172,105.2823,79.7316,280.3803,-9.8926e-05,-1.861e-05,0.0,0 STARLINK-4648,1 53602U 22104Q   24187.94714010 -.00001861  00000-0 -98926-4 0  9999,2 53602  53.2172 105.2823 0001127  79.7316 280.3803 15.08832133103331,6917.904,95.438,540.549,538.99,0.0
53602.0,STARLINK-4648,PAYLOAD,2024-07-06 05:05:25,15.08836901,0.0001372,53.2171,104.0905,70.1603,289.9537,0.00020961,3.049e-05,0.0,0 STARLINK-4648,1 53602U 22104Q   24188.21210034  .00003049  00000-0  20961-3 0  9998,2 53602  53.2171 104.0905 0001372  70.1603 289.9537 15.08836901102687,6917.89,95.438,540.704,538.806,0.0
53602.0,STARLINK-4648,PAYLOAD,2024-07-06 11:26:57,15.08848177,0.0001347,53.2178,102.9051,79.9615,280.1529,0.00085173,0.00013296,0.0,0 STARLINK-4648,1 53602U 22104Q   24188.47705843  .00013296  00000-0  85173-3 0  9994,2 53602  53.2178 102.9051 0001347  79.9615 280.1529 15.08848177103419,6917.855,95.437,540.652,538.789,0.0
53602.0,STARLINK-4648,PAYLOAD,2024-07-06 22:34:40,15.08834996,0.0001275,53.2174,100.8232,85.3306,274.7831,0.00054848,8.451e-05,0.0,0 STARLINK-4648,1 53602U 22104Q   24188.94074314  .00008451  00000-0  54848-3 0  9990,2 53602  53.2174 100.8232 0001275  85.3306 274.7831 15.08834996103487,6917.896,95.438,540.643,538.879,0.0
